{
    "links": {
        "self": "http://www.neowsapp.com/rest/v1/neo/3342129?api_key=iIulBulltgU6a56xZRHN4H3l9WmuAYTsLGpBGhQ2"
    },
    "id": "3342129",
    "neo_reference_id": "3342129",
    "name": "(2006 RJ7)",
    "designation": "2006 RJ7",
    "nasa_jpl_url": "http://ssd.jpl.nasa.gov/sbdb.cgi?sstr=3342129",
    "absolute_magnitude_h": 23.7,
    "estimated_diameter": {
        "kilometers": {
            "estimated_diameter_min": 0.0483676488,
            "estimated_diameter_max": 0.1081533507
        },
        "meters": {
            "estimated_diameter_min": 48.3676488219,
            "estimated_diameter_max": 108.1533506775
        },
        "miles": {
            "estimated_diameter_min": 0.0300542543,
            "estimated_diameter_max": 0.0672033557
        },
        "feet": {
            "estimated_diameter_min": 158.6865169607,
            "estimated_diameter_max": 354.8338390368
        }
    },
    "is_potentially_hazardous_asteroid": false,
    "close_approach_data": [
        {
            "close_approach_date": "2006-09-19",
            "close_approach_date_full": "2006-Sep-19 01:08",
            "epoch_date_close_approach": 1158628080000,
            "relative_velocity": {
                "kilometers_per_second": "15.7706891952",
                "kilometers_per_hour": "56774.4811028626",
                "miles_per_hour": "35277.4546608315"
            },
            "miss_distance": {
                "astronomical": "0.0399762654",
                "lunar": "15.5507672406",
                "kilometers": "5980364.154394698",
                "miles": "3716025.9711269124"
            },
            "orbiting_body": "Earth"
        }
    ],
    "orbital_data": {
        "orbit_id": "9",
        "orbit_determination_date": "2017-04-06 09:08:10",
        "first_observation_date": "2006-09-15",
        "last_observation_date": "2006-09-19",
        "data_arc_in_days": 4,
        "observations_used": 23,
        "orbit_uncertainty": "9",
        "minimum_orbit_intersection": ".00115173",
        "jupiter_tisserand_invariant": "3.804",
        "epoch_osculation": "2453995.5",
        "eccentricity": ".5819817772977641",
        "semi_major_axis": "1.832932202034671",
        "inclination": "1.874206328334",
        "ascending_node_longitude": "177.0058414073321",
        "orbital_period": "906.3961010717555",
        "perihelion_distance": ".7661990614282287",
        "perihelion_argument": "251.1311546538716",
        "aphelion_distance": "2.899665342641113",
        "perihelion_time": "2454043.734608117421",
        "mean_anomaly": "340.842306248075",
        "mean_motion": ".3971773483737662",
        "equinox": "J2000",
        "orbit_class": {
            "orbit_class_type": "APO",
            "orbit_class_description": "Near-Earth asteroid orbits which cross the Earth’s orbit similar to that of 1862 Apollo",
            "orbit_class_range": "a (semi-major axis) > 1.0 AU; q (perihelion) < 1.017 AU"
        }
    },
    "is_sentry_object": false
}